<?xml version="1.0" encoding="UTF-8"?>
<ndm xmlns:xsi="http://www.w3.org/2001/XMLSchema-instance" xsi:noNamespaceSchemaLocation="https://sanaregistry.org/r/ndmxml_unqualified/ndmxml-2.0.0-master-2.0.xsd">
<omm id="CCSDS_OMM_VERS" version="2.0">
<header><CREATION_DATE/><ORIGINATOR/></header><body><segment><metadata><OBJECT_NAME>ONEWEB-0588</OBJECT_NAME><OBJECT_ID>2023-004P</OBJECT_ID><CENTER_NAME>EARTH</CENTER_NAME><REF_FRAME>TEME</REF_FRAME><TIME_SYSTEM>UTC</TIME_SYSTEM><MEAN_ELEMENT_THEORY>SGP4</MEAN_ELEMENT_THEORY></metadata><data><meanElements><EPOCH>2024-11-25T09:54:41.709600</EPOCH><MEAN_MOTION>13.18684506</MEAN_MOTION><ECCENTRICITY>.0001458</ECCENTRICITY><INCLINATION>87.9103</INCLINATION><RA_OF_ASC_NODE>88.6825</RA_OF_ASC_NODE><ARG_OF_PERICENTER>119.5211</ARG_OF_PERICENTER><MEAN_ANOMALY>240.6067</MEAN_ANOMALY></meanElements><tleParameters><EPHEMERIS_TYPE>0</EPHEMERIS_TYPE><CLASSIFICATION_TYPE>U</CLASSIFICATION_TYPE><NORAD_CAT_ID>55153</NORAD_CAT_ID><ELEMENT_SET_NO>999</ELEMENT_SET_NO><REV_AT_EPOCH>9473</REV_AT_EPOCH><BSTAR>.51466E-3</BSTAR><MEAN_MOTION_DOT>.216E-5</MEAN_MOTION_DOT><MEAN_MOTION_DDOT>0</MEAN_MOTION_DDOT></tleParameters></data></segment></body></omm>
<omm id="CCSDS_OMM_VERS" version="2.0">
<header><CREATION_DATE/><ORIGINATOR/></header><body><segment><metadata><OBJECT_NAME>ONEWEB-0598</OBJECT_NAME><OBJECT_ID>2023-004Q</OBJECT_ID><CENTER_NAME>EARTH</CENTER_NAME><REF_FRAME>TEME</REF_FRAME><TIME_SYSTEM>UTC</TIME_SYSTEM><MEAN_ELEMENT_THEORY>SGP4</MEAN_ELEMENT_THEORY></metadata><data><meanElements><EPOCH>2024-11-25T12:29:25.829376</EPOCH><MEAN_MOTION>13.11417200</MEAN_MOTION><ECCENTRICITY>.0000817</ECCENTRICITY><INCLINATION>87.8880</INCLINATION><RA_OF_ASC_NODE>134.3940</RA_OF_ASC_NODE><ARG_OF_PERICENTER>83.7545</ARG_OF_PERICENTER><MEAN_ANOMALY>276.3676</MEAN_ANOMALY></meanElements><tleParameters><EPHEMERIS_TYPE>0</EPHEMERIS_TYPE><CLASSIFICATION_TYPE>U</CLASSIFICATION_TYPE><NORAD_CAT_ID>55154</NORAD_CAT_ID><ELEMENT_SET_NO>999</ELEMENT_SET_NO><REV_AT_EPOCH>9136</REV_AT_EPOCH><BSTAR>.10277E-2</BSTAR><MEAN_MOTION_DOT>.377E-5</MEAN_MOTION_DOT><MEAN_MOTION_DDOT>0</MEAN_MOTION_DDOT></tleParameters></data></segment></body></omm>
<omm id="CCSDS_OMM_VERS" version="2.0">
<header><CREATION_DATE/><ORIGINATOR/></header><body><segment><metadata><OBJECT_NAME>ONEWEB-0599</OBJECT_NAME><OBJECT_ID>2023-004R</OBJECT_ID><CENTER_NAME>EARTH</CENTER_NAME><REF_FRAME>TEME</REF_FRAME><TIME_SYSTEM>UTC</TIME_SYSTEM><MEAN_ELEMENT_THEORY>SGP4</MEAN_ELEMENT_THEORY></metadata><data><meanElements><EPOCH>2024-11-25T22:42:51.214176</EPOCH><MEAN_MOTION>13.17649428</MEAN_MOTION><ECCENTRICITY>.0001401</ECCENTRICITY><INCLINATION>87.9083</INCLINATION><RA_OF_ASC_NODE>119.0607</RA_OF_ASC_NODE><ARG_OF_PERICENTER>88.0257</ARG_OF_PERICENTER><MEAN_ANOMALY>272.1035</MEAN_ANOMALY></meanElements><tleParameters><EPHEMERIS_TYPE>0</EPHEMERIS_TYPE><CLASSIFICATION_TYPE>U</CLASSIFICATION_TYPE><NORAD_CAT_ID>55155</NORAD_CAT_ID><ELEMENT_SET_NO>999</ELEMENT_SET_NO><REV_AT_EPOCH>9265</REV_AT_EPOCH><BSTAR>.20462E-3</BSTAR><MEAN_MOTION_DOT>.92E-6</MEAN_MOTION_DOT><MEAN_MOTION_DDOT>0</MEAN_MOTION_DDOT></tleParameters></data></segment></body></omm>
<omm id="CCSDS_OMM_VERS" version="2.0">
<header><CREATION_DATE/><ORIGINATOR/></header><body><segment><metadata><OBJECT_NAME>ONEWEB-0614</OBJECT_NAME><OBJECT_ID>2023-004S</OBJECT_ID><CENTER_NAME>EARTH</CENTER_NAME><REF_FRAME>TEME</REF_FRAME><TIME_SYSTEM>UTC</TIME_SYSTEM><MEAN_ELEMENT_THEORY>SGP4</MEAN_ELEMENT_THEORY></metadata><data><meanElements><EPOCH>2024-11-25T12:22:06.529440</EPOCH><MEAN_MOTION>13.11417657</MEAN_MOTION><ECCENTRICITY>.000169</ECCENTRICITY><INCLINATION>87.8881</INCLINATION><RA_OF_ASC_NODE>134.4009</RA_OF_ASC_NODE><ARG_OF_PERICENTER>102.7525</ARG_OF_PERICENTER><MEAN_ANOMALY>257.3792</MEAN_ANOMALY></meanElements><tleParameters><EPHEMERIS_TYPE>0</EPHEMERIS_TYPE><CLASSIFICATION_TYPE>U</CLASSIFICATION_TYPE><NORAD_CAT_ID>55156</NORAD_CAT_ID><ELEMENT_SET_NO>999</ELEMENT_SET_NO><REV_AT_EPOCH>9130</REV_AT_EPOCH><BSTAR>.60754E-3</BSTAR><MEAN_MOTION_DOT>.228E-5</MEAN_MOTION_DOT><MEAN_MOTION_DDOT>0</MEAN_MOTION_DDOT></tleParameters></data></segment></body></omm>
<omm id="CCSDS_OMM_VERS" version="2.0">
<header><CREATION_DATE/><ORIGINATOR/></header><body><segment><metadata><OBJECT_NAME>ONEWEB-0616</OBJECT_NAME><OBJECT_ID>2023-004T</OBJECT_ID><CENTER_NAME>EARTH</CENTER_NAME><REF_FRAME>TEME</REF_FRAME><TIME_SYSTEM>UTC</TIME_SYSTEM><MEAN_ELEMENT_THEORY>SGP4</MEAN_ELEMENT_THEORY></metadata><data><meanElements><EPOCH>2024-11-25T10:58:09.759360</EPOCH><MEAN_MOTION>13.17647410</MEAN_MOTION><ECCENTRICITY>.0002108</ECCENTRICITY><INCLINATION>87.9078</INCLINATION><RA_OF_ASC_NODE>119.1589</RA_OF_ASC_NODE><ARG_OF_PERICENTER>63.1996</ARG_OF_PERICENTER><MEAN_ANOMALY>296.9351</MEAN_ANOMALY></meanElements><tleParameters><EPHEMERIS_TYPE>0</EPHEMERIS_TYPE><CLASSIFICATION_TYPE>U</CLASSIFICATION_TYPE><NORAD_CAT_ID>55157</NORAD_CAT_ID><ELEMENT_SET_NO>999</ELEMENT_SET_NO><REV_AT_EPOCH>9280</REV_AT_EPOCH><BSTAR>.35584E-3</BSTAR><MEAN_MOTION_DOT>.151E-5</MEAN_MOTION_DOT><MEAN_MOTION_DDOT>0</MEAN_MOTION_DDOT></tleParameters></data></segment></body></omm>
<omm id="CCSDS_OMM_VERS" version="2.0">
<header><CREATION_DATE/><ORIGINATOR/></header><body><segment><metadata><OBJECT_NAME>ONEWEB-0617</OBJECT_NAME><OBJECT_ID>2023-004U</OBJECT_ID><CENTER_NAME>EARTH</CENTER_NAME><REF_FRAME>TEME</REF_FRAME><TIME_SYSTEM>UTC</TIME_SYSTEM><MEAN_ELEMENT_THEORY>SGP4</MEAN_ELEMENT_THEORY></metadata><data><meanElements><EPOCH>2024-11-25T12:04:59.255040</EPOCH><MEAN_MOTION>13.11428482</MEAN_MOTION><ECCENTRICITY>.0001436</ECCENTRICITY><INCLINATION>87.8890</INCLINATION><RA_OF_ASC_NODE>134.3958</RA_OF_ASC_NODE><ARG_OF_PERICENTER>110.6904</ARG_OF_PERICENTER><MEAN_ANOMALY>249.4378</MEAN_ANOMALY></meanElements><tleParameters><EPHEMERIS_TYPE>0</EPHEMERIS_TYPE><CLASSIFICATION_TYPE>U</CLASSIFICATION_TYPE><NORAD_CAT_ID>55158</NORAD_CAT_ID><ELEMENT_SET_NO>999</ELEMENT_SET_NO><REV_AT_EPOCH>9132</REV_AT_EPOCH><BSTAR>-.71388E-2</BSTAR><MEAN_MOTION_DOT>-.2517E-4</MEAN_MOTION_DOT><MEAN_MOTION_DDOT>0</MEAN_MOTION_DDOT></tleParameters></data></segment></body></omm>
<omm id="CCSDS_OMM_VERS" version="2.0">
<header><CREATION_DATE/><ORIGINATOR/></header><body><segment><metadata><OBJECT_NAME>ONEWEB-0618</OBJECT_NAME><OBJECT_ID>2023-004V</OBJECT_ID><CENTER_NAME>EARTH</CENTER_NAME><REF_FRAME>TEME</REF_FRAME><TIME_SYSTEM>UTC</TIME_SYSTEM><MEAN_ELEMENT_THEORY>SGP4</MEAN_ELEMENT_THEORY></metadata><data><meanElements><EPOCH>2024-11-25T14:10:31.945728</EPOCH><MEAN_MOTION>14.27467940</MEAN_MOTION><ECCENTRICITY>.0015084</ECCENTRICITY><INCLINATION>86.9100</INCLINATION><RA_OF_ASC_NODE>36.0511</RA_OF_ASC_NODE><ARG_OF_PERICENTER>117.4159</ARG_OF_PERICENTER><MEAN_ANOMALY>242.8570</MEAN_ANOMALY></meanElements><tleParameters><EPHEMERIS_TYPE>0</EPHEMERIS_TYPE><CLASSIFICATION_TYPE>U</CLASSIFICATION_TYPE><NORAD_CAT_ID>55159</NORAD_CAT_ID><ELEMENT_SET_NO>999</ELEMENT_SET_NO><REV_AT_EPOCH>9836</REV_AT_EPOCH><BSTAR>.43745E-3</BSTAR><MEAN_MOTION_DOT>.1093E-4</MEAN_MOTION_DOT><MEAN_MOTION_DDOT>0</MEAN_MOTION_DDOT></tleParameters></data></segment></body></omm>
<omm id="CCSDS_OMM_VERS" version="2.0">
<header><CREATION_DATE/><ORIGINATOR/></header><body><segment><metadata><OBJECT_NAME>ONEWEB-0619</OBJECT_NAME><OBJECT_ID>2023-004W</OBJECT_ID><CENTER_NAME>EARTH</CENTER_NAME><REF_FRAME>TEME</REF_FRAME><TIME_SYSTEM>UTC</TIME_SYSTEM><MEAN_ELEMENT_THEORY>SGP4</MEAN_ELEMENT_THEORY></metadata><data><meanElements><EPOCH>2024-11-25T11:44:20.491584</EPOCH><MEAN_MOTION>13.17648985</MEAN_MOTION><ECCENTRICITY>.0002063</ECCENTRICITY><INCLINATION>87.9080</INCLINATION><RA_OF_ASC_NODE>119.1299</RA_OF_ASC_NODE><ARG_OF_PERICENTER>96.4520</ARG_OF_PERICENTER><MEAN_ANOMALY>263.6846</MEAN_ANOMALY></meanElements><tleParameters><EPHEMERIS_TYPE>0</EPHEMERIS_TYPE><CLASSIFICATION_TYPE>U</CLASSIFICATION_TYPE><NORAD_CAT_ID>55160</NORAD_CAT_ID><ELEMENT_SET_NO>999</ELEMENT_SET_NO><REV_AT_EPOCH>9270</REV_AT_EPOCH><BSTAR>.12231E-3</BSTAR><MEAN_MOTION_DOT>.6E-6</MEAN_MOTION_DOT><MEAN_MOTION_DDOT>0</MEAN_MOTION_DDOT></tleParameters></data></segment></body></omm>

</ndm>
