ONEWEB-0588             
1 55153U 23004P   24330.41298275  .00000216  00000+0  51466-3 0  9991
2 55153  87.9103  88.6825 0001458 119.5211 240.6067 13.18684506 94734
ONEWEB-0598             
1 55154U 23004Q   24330.52043784  .00000377  00000+0  10277-2 0  9999
2 55154  87.8880 134.3940 0000817  83.7545 276.3676 13.11417200 91369
ONEWEB-0599             
1 55155U 23004R   24330.94642609  .00000092  00000+0  20462-3 0  9999
2 55155  87.9083 119.0607 0001401  88.0257 272.1035 13.17649428 92655
ONEWEB-0614             
1 55156U 23004S   24330.51535335  .00000228  00000+0  60754-3 0  9999
2 55156  87.8881 134.4009 0001690 102.7525 257.3792 13.11417657 91307
ONEWEB-0616             
1 55157U 23004T   24330.45705740  .00000151  00000+0  35584-3 0  9990
2 55157  87.9078 119.1589 0002108  63.1996 296.9351 13.17647410 92801
ONEWEB-0617             
1 55158U 23004U   24330.50346360 -.00002517  00000+0 -71388-2 0  9997
2 55158  87.8890 134.3958 0001436 110.6904 249.4378 13.11428482 91320
ONEWEB-0618             
1 55159U 23004V   24330.59064752  .00001093  00000+0  43745-3 0  9992
2 55159  86.9100  36.0511 0015084 117.4159 242.8570 14.27467940 98361
ONEWEB-0619             
1 55160U 23004W   24330.48912606  .00000060  00000+0  12231-3 0  9991
2 55160  87.9080 119.1299 0002063  96.4520 263.6846 13.17648985 92705
